start=new Date('2022-09-14T00:00:00.000Z').valueOf();
sats=[{"RCS_SIZE":"LARGE","MEAN_ELEMENT_THEORY":"SGP4","MEAN_MOTION":"15.01249716","DECAY_DATE":null,"TIME_SYSTEM":"UTC","REF_FRAME":"TEME","SEMIMAJOR_AXIS":"6941.179","BSTAR":"-0.00050873000000","OBJECT_NAME":"STARLINK-4413","REV_AT_EPOCH":"130","ELEMENT_SET_NO":"999","ARG_OF_PERICENTER":"102.6666","ECCENTRICITY":"0.00018270","PERIAPSIS":"561.775","PERIOD":"95.920","OBJECT_TYPE":"PAYLOAD","FILE":"3573088","INCLINATION":"97.6537","LAUNCH_DATE":"2022-07-22","MEAN_ANOMALY":"25.7198","CLASSIFICATION_TYPE":"U","RA_OF_ASC_NODE":"316.9363","EPHEMERIS_TYPE":"0","GP_ID":"212538401","CENTER_NAME":"EARTH","MEAN_MOTION_DDOT":"0.0000000000000","EPOCH":"2022-09-13T22:00:00.999936","TLE_LINE2":"2 53207  97.6537 316.9363 0001827 102.6666  25.7198 15.01249716  1304","COUNTRY_CODE":"US","NORAD_CAT_ID":"53207","MEAN_MOTION_DOT":"-0.00006585","APOAPSIS":"564.312","SITE":"AFWTR","TLE_LINE1":"1 53207U 22084U   22256.91667824 -.00006585  00000-0 -50873-3 0  9995","OBJECT_ID":"2022-084U"},{"TLE_LINE2":"2 53208  97.6548 316.9373 0002045 110.5584 337.8263 15.01258611  1302","GP_ID":"212537672","EPHEMERIS_TYPE":"0","CENTER_NAME":"EARTH","MEAN_MOTION_DDOT":"0.0000000000000","EPOCH":"2022-09-13T22:00:00.999936","SITE":"AFWTR","TLE_LINE1":"1 53208U 22084V   22256.91667824 -.00015619  00000-0 -12141-2 0  9999","OBJECT_ID":"2022-084V","COUNTRY_CODE":"US","APOAPSIS":"564.436","MEAN_MOTION_DOT":"-0.00015619","NORAD_CAT_ID":"53208","DECAY_DATE":null,"TIME_SYSTEM":"UTC","SEMIMAJOR_AXIS":"6941.151","REF_FRAME":"TEME","BSTAR":"-0.00121410000000","OBJECT_NAME":"STARLINK-4425","MEAN_MOTION":"15.01258611","PERIAPSIS":"561.597","REV_AT_EPOCH":"130","ELEMENT_SET_NO":"999","ARG_OF_PERICENTER":"110.5584","ECCENTRICITY":"0.00020450","RCS_SIZE":"LARGE","MEAN_ELEMENT_THEORY":"SGP4","CLASSIFICATION_TYPE":"U","MEAN_ANOMALY":"337.8263","RA_OF_ASC_NODE":"316.9373","FILE":"3573088","OBJECT_TYPE":"PAYLOAD","PERIOD":"95.920","LAUNCH_DATE":"2022-07-22","INCLINATION":"97.6548"},{"RCS_SIZE":"LARGE","MEAN_ELEMENT_THEORY":"SGP4","BSTAR":"-0.00049871000000","SEMIMAJOR_AXIS":"6941.144","REF_FRAME":"TEME","OBJECT_NAME":"STARLINK-4423","DECAY_DATE":null,"TIME_SYSTEM":"UTC","MEAN_MOTION":"15.01260773","PERIAPSIS":"561.612","ARG_OF_PERICENTER":"106.2040","ELEMENT_SET_NO":"999","ECCENTRICITY":"0.00020140","REV_AT_EPOCH":"130","OBJECT_TYPE":"PAYLOAD","FILE":"3573088","PERIOD":"95.919","LAUNCH_DATE":"2022-07-22","INCLINATION":"97.6532","CLASSIFICATION_TYPE":"U","MEAN_ANOMALY":"30.8947","RA_OF_ASC_NODE":"316.9357","GP_ID":"212537831","EPHEMERIS_TYPE":"0","MEAN_MOTION_DDOT":"0.0000000000000","EPOCH":"2022-09-13T22:00:00.999936","CENTER_NAME":"EARTH","TLE_LINE2":"2 53209  97.6532 316.9357 0002014 106.2040  30.8947 15.01260773  1304","COUNTRY_CODE":"US","APOAPSIS":"564.407","MEAN_MOTION_DOT":"-0.00006459","NORAD_CAT_ID":"53209","TLE_LINE1":"1 53209U 22084W   22256.91667824 -.00006459  00000-0 -49871-3 0  9993","SITE":"AFWTR","OBJECT_ID":"2022-084W"},{"LAUNCH_DATE":"2022-07-22","INCLINATION":"97.6547","OBJECT_TYPE":"PAYLOAD","FILE":"3573088","PERIOD":"95.916","RA_OF_ASC_NODE":"316.9397","CLASSIFICATION_TYPE":"U","MEAN_ANOMALY":"29.5239","MEAN_ELEMENT_THEORY":"SGP4","RCS_SIZE":"LARGE","PERIAPSIS":"561.564","ARG_OF_PERICENTER":"78.9019","ELEMENT_SET_NO":"999","ECCENTRICITY":"0.00018560","REV_AT_EPOCH":"130","SEMIMAJOR_AXIS":"6940.987","BSTAR":"-0.00960570000000","OBJECT_NAME":"STARLINK-4427","REF_FRAME":"TEME","DECAY_DATE":null,"TIME_SYSTEM":"UTC","MEAN_MOTION":"15.01311853","APOAPSIS":"564.140","MEAN_MOTION_DOT":"-0.00121507","NORAD_CAT_ID":"53210","COUNTRY_CODE":"US","OBJECT_ID":"2022-084X","SITE":"AFWTR","TLE_LINE1":"1 53210U 22084X   22256.91667824 -.00121507  00000-0 -96057-2 0  9994","MEAN_MOTION_DDOT":"0.0000000000000","EPOCH":"2022-09-13T22:00:00.999936","CENTER_NAME":"EARTH","GP_ID":"212538560","EPHEMERIS_TYPE":"0","TLE_LINE2":"2 53210  97.6547 316.9397 0001856  78.9019  29.5239 15.01311853  1305"},{"MEAN_ELEMENT_THEORY":"SGP4","RCS_SIZE":"LARGE","REV_AT_EPOCH":"130","ELEMENT_SET_NO":"999","ARG_OF_PERICENTER":"125.1556","ECCENTRICITY":"0.00021550","PERIAPSIS":"561.545","MEAN_MOTION":"15.01250469","DECAY_DATE":null,"TIME_SYSTEM":"UTC","SEMIMAJOR_AXIS":"6941.176","BSTAR":"-0.00040637000000","REF_FRAME":"TEME","OBJECT_NAME":"STARLINK-4419","INCLINATION":"97.6535","LAUNCH_DATE":"2022-07-22","PERIOD":"95.920","OBJECT_TYPE":"PAYLOAD","FILE":"3573088","RA_OF_ASC_NODE":"316.9360","MEAN_ANOMALY":"33.2395","CLASSIFICATION_TYPE":"U","CENTER_NAME":"EARTH","MEAN_MOTION_DDOT":"0.0000000000000","EPOCH":"2022-09-13T22:00:00.999936","EPHEMERIS_TYPE":"0","GP_ID":"212537987","TLE_LINE2":"2 53211  97.6535 316.9360 0002155 125.1556  33.2395 15.01250469  1307","NORAD_CAT_ID":"53211","MEAN_MOTION_DOT":"-0.00005273","APOAPSIS":"564.537","COUNTRY_CODE":"US","OBJECT_ID":"2022-084Y","SITE":"AFWTR","TLE_LINE1":"1 53211U 22084Y   22256.91667824 -.00005273  00000-0 -40637-3 0  9990"},{"CLASSIFICATION_TYPE":"U","MEAN_ANOMALY":"31.2756","RA_OF_ASC_NODE":"316.9401","FILE":"3573088","OBJECT_TYPE":"PAYLOAD","PERIOD":"95.918","LAUNCH_DATE":"2022-07-22","INCLINATION":"97.6543","TIME_SYSTEM":"UTC","DECAY_DATE":null,"SEMIMAJOR_AXIS":"6941.065","REF_FRAME":"TEME","BSTAR":"-0.00731160000000","OBJECT_NAME":"STARLINK-4416","MEAN_MOTION":"15.01286601","PERIAPSIS":"561.546","REV_AT_EPOCH":"130","ELEMENT_SET_NO":"999","ECCENTRICITY":"0.00019940","ARG_OF_PERICENTER":"107.1497","RCS_SIZE":"LARGE","MEAN_ELEMENT_THEORY":"SGP4","SITE":"AFWTR","TLE_LINE1":"1 53212U 22084Z   22256.91667824 -.00092815  00000-0 -73116-2 0  9996","OBJECT_ID":"2022-084Z","COUNTRY_CODE":"US","MEAN_MOTION_DOT":"-0.00092815","APOAPSIS":"564.314","NORAD_CAT_ID":"53212","TLE_LINE2":"2 53212  97.6543 316.9401 0001994 107.1497  31.2756 15.01286601  1303","GP_ID":"212538089","EPHEMERIS_TYPE":"0","CENTER_NAME":"EARTH","EPOCH":"2022-09-13T22:00:00.999936","MEAN_MOTION_DDOT":"0.0000000000000"},{"OBJECT_ID":"2022-084AA","TLE_LINE1":"1 53213U 22084AA  22256.91667824 -.00004016  00000-0 -30834-3 0  9994","SITE":"AFWTR","APOAPSIS":"564.302","MEAN_MOTION_DOT":"-0.00004016","NORAD_CAT_ID":"53213","COUNTRY_CODE":"US","TLE_LINE2":"2 53213  97.6533 316.9355 0001801 112.8391  75.5418 15.01246859  1301","EPOCH":"2022-09-13T22:00:00.999936","MEAN_MOTION_DDOT":"0.0000000000000","CENTER_NAME":"EARTH","GP_ID":"212538247","EPHEMERIS_TYPE":"0","RA_OF_ASC_NODE":"316.9355","CLASSIFICATION_TYPE":"U","MEAN_ANOMALY":"75.5418","LAUNCH_DATE":"2022-07-22","INCLINATION":"97.6533","OBJECT_TYPE":"PAYLOAD","FILE":"3573088","PERIOD":"95.920","PERIAPSIS":"561.802","ELEMENT_SET_NO":"999","ECCENTRICITY":"0.00018010","ARG_OF_PERICENTER":"112.8391","REV_AT_EPOCH":"130","SEMIMAJOR_AXIS":"6941.187","BSTAR":"-0.00030834000000","REF_FRAME":"TEME","OBJECT_NAME":"STARLINK-4414","TIME_SYSTEM":"UTC","DECAY_DATE":null,"MEAN_MOTION":"15.01246859","MEAN_ELEMENT_THEORY":"SGP4","RCS_SIZE":"LARGE"},{"MEAN_ANOMALY":"35.1419","CLASSIFICATION_TYPE":"U","RA_OF_ASC_NODE":"316.9369","PERIOD":"95.920","OBJECT_TYPE":"PAYLOAD","FILE":"3573088","INCLINATION":"97.6524","LAUNCH_DATE":"2022-07-22","MEAN_MOTION":"15.01248151","TIME_SYSTEM":"UTC","DECAY_DATE":null,"SEMIMAJOR_AXIS":"6941.183","REF_FRAME":"TEME","BSTAR":"-0.00086626000000","OBJECT_NAME":"STARLINK-4353","REV_AT_EPOCH":"130","ARG_OF_PERICENTER":"113.2492","ELEMENT_SET_NO":"999","ECCENTRICITY":"0.00017720","PERIAPSIS":"561.818","RCS_SIZE":"LARGE","MEAN_ELEMENT_THEORY":"SGP4","TLE_LINE1":"1 53214U 22084AB  22256.91667824 -.00011164  00000-0 -86626-3 0  9997","SITE":"AFWTR","OBJECT_ID":"2022-084AB","COUNTRY_CODE":"US","NORAD_CAT_ID":"53214","APOAPSIS":"564.278","MEAN_MOTION_DOT":"-0.00011164","TLE_LINE2":"2 53214  97.6524 316.9369 0001772 113.2492  35.1419 15.01248151  1301","EPHEMERIS_TYPE":"0","GP_ID":"212538777","CENTER_NAME":"EARTH","EPOCH":"2022-09-13T22:00:00.999936","MEAN_MOTION_DDOT":"0.0000000000000"},{"RA_OF_ASC_NODE":"316.9357","MEAN_ANOMALY":"73.1898","CLASSIFICATION_TYPE":"U","INCLINATION":"97.6533","LAUNCH_DATE":"2022-07-22","PERIOD":"95.919","FILE":"3573088","OBJECT_TYPE":"PAYLOAD","ELEMENT_SET_NO":"999","ECCENTRICITY":"0.00019940","ARG_OF_PERICENTER":"125.1599","REV_AT_EPOCH":"130","PERIAPSIS":"561.615","MEAN_MOTION":"15.01264038","OBJECT_NAME":"STARLINK-4335","SEMIMAJOR_AXIS":"6941.134","BSTAR":"-0.00021606000000","REF_FRAME":"TEME","TIME_SYSTEM":"UTC","DECAY_DATE":null,"MEAN_ELEMENT_THEORY":"SGP4","RCS_SIZE":"LARGE","OBJECT_ID":"2022-084AC","SITE":"AFWTR","TLE_LINE1":"1 53215U 22084AC  22256.91667824 -.00002833  00000-0 -21606-3 0  9998","NORAD_CAT_ID":"53215","MEAN_MOTION_DOT":"-0.00002833","APOAPSIS":"564.383","COUNTRY_CODE":"US","TLE_LINE2":"2 53215  97.6533 316.9357 0001994 125.1599  73.1898 15.01264038  1300","MEAN_MOTION_DDOT":"0.0000000000000","EPOCH":"2022-09-13T22:00:00.999936","CENTER_NAME":"EARTH","EPHEMERIS_TYPE":"0","GP_ID":"212538402"},{"RA_OF_ASC_NODE":"316.9390","CLASSIFICATION_TYPE":"U","MEAN_ANOMALY":"56.6707","LAUNCH_DATE":"2022-07-22","INCLINATION":"97.6545","FILE":"3573088","OBJECT_TYPE":"PAYLOAD","PERIOD":"95.918","PERIAPSIS":"561.730","ELEMENT_SET_NO":"999","ARG_OF_PERICENTER":"111.7376","ECCENTRICITY":"0.00017420","REV_AT_EPOCH":"130","BSTAR":"-0.00509580000000","SEMIMAJOR_AXIS":"6941.074","OBJECT_NAME":"STARLINK-4376","REF_FRAME":"TEME","TIME_SYSTEM":"UTC","DECAY_DATE":null,"MEAN_MOTION":"15.01283696","MEAN_ELEMENT_THEORY":"SGP4","RCS_SIZE":"LARGE","OBJECT_ID":"2022-084AD","SITE":"AFWTR","TLE_LINE1":"1 53216U 22084AD  22256.91667824 -.00064954  00000-0 -50958-2 0  9992","APOAPSIS":"564.148","MEAN_MOTION_DOT":"-0.00064954","NORAD_CAT_ID":"53216","COUNTRY_CODE":"US","TLE_LINE2":"2 53216  97.6545 316.9390 0001742 111.7376  56.6707 15.01283696  1302","MEAN_MOTION_DDOT":"0.0000000000000","EPOCH":"2022-09-13T22:00:00.999936","CENTER_NAME":"EARTH","GP_ID":"212537673","EPHEMERIS_TYPE":"0"}];
